THURAYA-4               
1 62483U 25001A   26116.14623368  .00000126  00000+0  00000+0 0  9997
2 62483   0.0404  78.3423 0000084 214.9472  17.7741  1.00274501  3652
SHIJIAN-25 (SJ-25)      
1 62485U 25002A   26115.48042933 -.00000362  00000+0  00000+0 0  9992
2 62485   4.9907  61.4724 0051127 168.3426 283.8083  1.00259788  4833
TJS-14                  
1 62804U 25017A   26116.28377425  .00000101  00000+0  00000+0 0  9999
2 62804   0.9017 292.5116 0000876  69.6000 332.6824  1.00272749  4753
SPAINSAT NG I           
1 62852U 25021A   26114.64587427  .00000137  00000+0  00000+0 0  9999
2 62852   0.0187 256.5608 0000496  44.0999 173.5175  1.00273459  3459
QZS-6 (MICHIBIKI-6)     
1 62876U 25023A   26116.51191992  .00000000  00000+0  00000+0 0  9992
2 62876   0.0129  73.8694 0002688 331.1293  84.2857  1.00271607  4446
ZHONGXING-10R           
1 63075U 25036A   26116.51742328 -.00000364  00000+0  00000+0 0  9997
2 63075   0.0140 230.5508 0001339 251.4253  29.3331  1.00270604  4442
TJS-15                  
1 63157U 25045A   26115.51449230 -.00000278  00000+0  00000+0 0  9997
2 63157   0.2773  84.5285 0006857 283.5809 124.9499  1.00270282  4235
TIANLIAN 2-04           
1 63361U 25062A   26115.58287262 -.00000157  00000+0  00000+0 0  9991
2 63361   4.5089 275.1854 0033121  11.3401 216.9447  1.00271212  4079
TJS-16                  
1 63397U 25064A   26115.75338463 -.00000119  00000+0  00000+0 0  9999
2 63397   0.9646  81.6274 0004626 277.0468 286.8701  1.00270972  3862
TJS-17                  
1 63524U 25073A   26115.75350838 -.00000083  00000+0  00000+0 0  9991
2 63524   0.9301  83.0106 0003631 274.0957 292.4232  1.00272175  3765
TIANLIAN 2-05           
1 63662U 25084A   26115.49984560  .00000102  00000+0  00000+0 0  9993
2 63662   4.5841 280.4325 0003503 111.6886  21.7451  1.00272545  3855
TJS-19                  
1 63924U 25097A   26115.75177659 -.00000295  00000+0  00000+0 0  9994
2 63924   3.3755 316.6241 0001150 309.5341 359.4502  1.00274990  3614
CHINASAT 3B             
1 64062U 25106A   26115.17240731 -.00000060  00000+0  00000+0 0  9997
2 64062   0.0408  51.9144 0001421 359.7428  30.8945  1.00270882  3529
SXM-10                  
1 64290U 25122A   26116.49655888 -.00000029  00000+0  00000+0 0  9992
2 64290   0.0366  35.2101 0002177 336.7621 265.1193  1.00271752  3167
CHINASAT 9C             
1 64470U 25132A   26116.51226659 -.00000260  00000+0  00000+0 0  9993
2 64470   0.0206 134.2059 0002963 257.4261  99.4993  1.00272785  3639
MTG-S1                  
1 64723U 25143A   26116.35076583 -.00000045  00000+0  00000+0 0  9998
2 64723   0.5989 336.9986 0002111 357.1081   3.1273  1.00271873  2893
DROR 1                  
1 64784U 25148A   26116.35059250  .00000000  00000+0  00000+0 0  9992
2 64784   0.0151  88.7082 0003517 283.7678 324.0896  1.00269861  2779
