[{"OBJECT_NAME":"THURAYA-4","OBJECT_ID":"2025-001A","EPOCH":"2026-04-26T03:30:34.589952","MEAN_MOTION":1.00274501,"ECCENTRICITY":8.4e-6,"INCLINATION":0.0404,"RA_OF_ASC_NODE":78.3423,"ARG_OF_PERICENTER":214.9472,"MEAN_ANOMALY":17.7741,"EPHEMERIS_TYPE":0,"CLASSIFICATION_TYPE":"U","NORAD_CAT_ID":62483,"ELEMENT_SET_NO":999,"REV_AT_EPOCH":365,"BSTAR":0,"MEAN_MOTION_DOT":1.26e-6,"MEAN_MOTION_DDOT":0},{"OBJECT_NAME":"SHIJIAN-25 (SJ-25)","OBJECT_ID":"2025-002A","EPOCH":"2026-04-25T11:31:49.094112","MEAN_MOTION":1.00259788,"ECCENTRICITY":0.0051127,"INCLINATION":4.9907,"RA_OF_ASC_NODE":61.4724,"ARG_OF_PERICENTER":168.3426,"MEAN_ANOMALY":283.8083,"EPHEMERIS_TYPE":0,"CLASSIFICATION_TYPE":"U","NORAD_CAT_ID":62485,"ELEMENT_SET_NO":999,"REV_AT_EPOCH":483,"BSTAR":0,"MEAN_MOTION_DOT":-3.62e-6,"MEAN_MOTION_DDOT":0},{"OBJECT_NAME":"TJS-14","OBJECT_ID":"2025-017A","EPOCH":"2026-04-26T06:48:38.095200","MEAN_MOTION":1.00272749,"ECCENTRICITY":8.76e-5,"INCLINATION":0.9017,"RA_OF_ASC_NODE":292.5116,"ARG_OF_PERICENTER":69.6,"MEAN_ANOMALY":332.6824,"EPHEMERIS_TYPE":0,"CLASSIFICATION_TYPE":"U","NORAD_CAT_ID":62804,"ELEMENT_SET_NO":999,"REV_AT_EPOCH":475,"BSTAR":0,"MEAN_MOTION_DOT":1.01e-6,"MEAN_MOTION_DDOT":0},{"OBJECT_NAME":"SPAINSAT NG I","OBJECT_ID":"2025-021A","EPOCH":"2026-04-24T15:30:03.536928","MEAN_MOTION":1.00273459,"ECCENTRICITY":4.965e-5,"INCLINATION":0.0187,"RA_OF_ASC_NODE":256.5608,"ARG_OF_PERICENTER":44.0999,"MEAN_ANOMALY":173.5175,"EPHEMERIS_TYPE":0,"CLASSIFICATION_TYPE":"U","NORAD_CAT_ID":62852,"ELEMENT_SET_NO":999,"REV_AT_EPOCH":345,"BSTAR":0,"MEAN_MOTION_DOT":1.37e-6,"MEAN_MOTION_DDOT":0},{"OBJECT_NAME":"QZS-6 (MICHIBIKI-6)","OBJECT_ID":"2025-023A","EPOCH":"2026-04-26T12:17:09.881088","MEAN_MOTION":1.00271607,"ECCENTRICITY":0.0002688,"INCLINATION":0.0129,"RA_OF_ASC_NODE":73.8694,"ARG_OF_PERICENTER":331.1293,"MEAN_ANOMALY":84.2857,"EPHEMERIS_TYPE":0,"CLASSIFICATION_TYPE":"U","NORAD_CAT_ID":62876,"ELEMENT_SET_NO":999,"REV_AT_EPOCH":444,"BSTAR":0,"MEAN_MOTION_DOT":0,"MEAN_MOTION_DDOT":0},{"OBJECT_NAME":"ZHONGXING-10R","OBJECT_ID":"2025-036A","EPOCH":"2026-04-26T12:25:05.371392","MEAN_MOTION":1.00270604,"ECCENTRICITY":0.0001339,"INCLINATION":0.014,"RA_OF_ASC_NODE":230.5508,"ARG_OF_PERICENTER":251.4253,"MEAN_ANOMALY":29.3331,"EPHEMERIS_TYPE":0,"CLASSIFICATION_TYPE":"U","NORAD_CAT_ID":63075,"ELEMENT_SET_NO":999,"REV_AT_EPOCH":444,"BSTAR":0,"MEAN_MOTION_DOT":-3.64e-6,"MEAN_MOTION_DDOT":0},{"OBJECT_NAME":"TJS-15","OBJECT_ID":"2025-045A","EPOCH":"2026-04-25T12:20:52.134720","MEAN_MOTION":1.00270282,"ECCENTRICITY":0.0006857,"INCLINATION":0.2773,"RA_OF_ASC_NODE":84.5285,"ARG_OF_PERICENTER":283.5809,"MEAN_ANOMALY":124.9499,"EPHEMERIS_TYPE":0,"CLASSIFICATION_TYPE":"U","NORAD_CAT_ID":63157,"ELEMENT_SET_NO":999,"REV_AT_EPOCH":423,"BSTAR":0,"MEAN_MOTION_DOT":-2.78e-6,"MEAN_MOTION_DDOT":0},{"OBJECT_NAME":"TIANLIAN 2-04","OBJECT_ID":"2025-062A","EPOCH":"2026-04-25T13:59:20.194368","MEAN_MOTION":1.00271212,"ECCENTRICITY":0.00331217,"INCLINATION":4.5089,"RA_OF_ASC_NODE":275.1854,"ARG_OF_PERICENTER":11.3401,"MEAN_ANOMALY":216.9447,"EPHEMERIS_TYPE":0,"CLASSIFICATION_TYPE":"U","NORAD_CAT_ID":63361,"ELEMENT_SET_NO":999,"REV_AT_EPOCH":407,"BSTAR":0,"MEAN_MOTION_DOT":-1.57e-6,"MEAN_MOTION_DDOT":0},{"OBJECT_NAME":"TJS-16","OBJECT_ID":"2025-064A","EPOCH":"2026-04-25T18:04:52.432032","MEAN_MOTION":1.00270972,"ECCENTRICITY":0.0004626,"INCLINATION":0.9646,"RA_OF_ASC_NODE":81.6274,"ARG_OF_PERICENTER":277.0468,"MEAN_ANOMALY":286.8701,"EPHEMERIS_TYPE":0,"CLASSIFICATION_TYPE":"U","NORAD_CAT_ID":63397,"ELEMENT_SET_NO":999,"REV_AT_EPOCH":386,"BSTAR":0,"MEAN_MOTION_DOT":-1.19e-6,"MEAN_MOTION_DDOT":0},{"OBJECT_NAME":"TJS-17","OBJECT_ID":"2025-073A","EPOCH":"2026-04-25T18:05:03.124032","MEAN_MOTION":1.00272175,"ECCENTRICITY":0.0003631,"INCLINATION":0.9301,"RA_OF_ASC_NODE":83.0106,"ARG_OF_PERICENTER":274.0957,"MEAN_ANOMALY":292.4232,"EPHEMERIS_TYPE":0,"CLASSIFICATION_TYPE":"U","NORAD_CAT_ID":63524,"ELEMENT_SET_NO":999,"REV_AT_EPOCH":376,"BSTAR":0,"MEAN_MOTION_DOT":-8.3e-7,"MEAN_MOTION_DDOT":0},{"OBJECT_NAME":"TIANLIAN 2-05","OBJECT_ID":"2025-084A","EPOCH":"2026-04-25T11:59:46.659840","MEAN_MOTION":1.00272545,"ECCENTRICITY":0.00035031,"INCLINATION":4.5841,"RA_OF_ASC_NODE":280.4325,"ARG_OF_PERICENTER":111.6886,"MEAN_ANOMALY":21.7451,"EPHEMERIS_TYPE":0,"CLASSIFICATION_TYPE":"U","NORAD_CAT_ID":63662,"ELEMENT_SET_NO":999,"REV_AT_EPOCH":385,"BSTAR":0,"MEAN_MOTION_DOT":1.02e-6,"MEAN_MOTION_DDOT":0},{"OBJECT_NAME":"TJS-19","OBJECT_ID":"2025-097A","EPOCH":"2026-04-25T18:02:33.497376","MEAN_MOTION":1.0027499,"ECCENTRICITY":0.000115,"INCLINATION":3.3755,"RA_OF_ASC_NODE":316.6241,"ARG_OF_PERICENTER":309.5341,"MEAN_ANOMALY":359.4502,"EPHEMERIS_TYPE":0,"CLASSIFICATION_TYPE":"U","NORAD_CAT_ID":63924,"ELEMENT_SET_NO":999,"REV_AT_EPOCH":361,"BSTAR":0,"MEAN_MOTION_DOT":-2.95e-6,"MEAN_MOTION_DDOT":0},{"OBJECT_NAME":"CHINASAT 3B","OBJECT_ID":"2025-106A","EPOCH":"2026-04-25T04:08:15.991584","MEAN_MOTION":1.00270882,"ECCENTRICITY":0.0001421,"INCLINATION":0.0408,"RA_OF_ASC_NODE":51.9144,"ARG_OF_PERICENTER":359.7428,"MEAN_ANOMALY":30.8945,"EPHEMERIS_TYPE":0,"CLASSIFICATION_TYPE":"U","NORAD_CAT_ID":64062,"ELEMENT_SET_NO":999,"REV_AT_EPOCH":352,"BSTAR":0,"MEAN_MOTION_DOT":-6.0e-7,"MEAN_MOTION_DDOT":0},{"OBJECT_NAME":"SXM-10","OBJECT_ID":"2025-122A","EPOCH":"2026-04-26T11:55:02.687232","MEAN_MOTION":1.00271752,"ECCENTRICITY":0.0002177,"INCLINATION":0.0366,"RA_OF_ASC_NODE":35.2101,"ARG_OF_PERICENTER":336.7621,"MEAN_ANOMALY":265.1193,"EPHEMERIS_TYPE":0,"CLASSIFICATION_TYPE":"U","NORAD_CAT_ID":64290,"ELEMENT_SET_NO":999,"REV_AT_EPOCH":316,"BSTAR":0,"MEAN_MOTION_DOT":-2.9e-7,"MEAN_MOTION_DDOT":0},{"OBJECT_NAME":"CHINASAT 9C","OBJECT_ID":"2025-132A","EPOCH":"2026-04-26T12:17:39.833376","MEAN_MOTION":1.00272785,"ECCENTRICITY":0.0002963,"INCLINATION":0.0206,"RA_OF_ASC_NODE":134.2059,"ARG_OF_PERICENTER":257.4261,"MEAN_ANOMALY":99.4993,"EPHEMERIS_TYPE":0,"CLASSIFICATION_TYPE":"U","NORAD_CAT_ID":64470,"ELEMENT_SET_NO":999,"REV_AT_EPOCH":363,"BSTAR":0,"MEAN_MOTION_DOT":-2.6e-6,"MEAN_MOTION_DDOT":0},{"OBJECT_NAME":"MTG-S1","OBJECT_ID":"2025-143A","EPOCH":"2026-04-26T08:25:06.167712","MEAN_MOTION":1.00271873,"ECCENTRICITY":0.0002111,"INCLINATION":0.5989,"RA_OF_ASC_NODE":336.9986,"ARG_OF_PERICENTER":357.1081,"MEAN_ANOMALY":3.1273,"EPHEMERIS_TYPE":0,"CLASSIFICATION_TYPE":"U","NORAD_CAT_ID":64723,"ELEMENT_SET_NO":999,"REV_AT_EPOCH":289,"BSTAR":0,"MEAN_MOTION_DOT":-4.5e-7,"MEAN_MOTION_DDOT":0},{"OBJECT_NAME":"DROR 1","OBJECT_ID":"2025-148A","EPOCH":"2026-04-26T08:24:51.192000","MEAN_MOTION":1.00269861,"ECCENTRICITY":0.0003517,"INCLINATION":0.0151,"RA_OF_ASC_NODE":88.7082,"ARG_OF_PERICENTER":283.7678,"MEAN_ANOMALY":324.0896,"EPHEMERIS_TYPE":0,"CLASSIFICATION_TYPE":"U","NORAD_CAT_ID":64784,"ELEMENT_SET_NO":999,"REV_AT_EPOCH":277,"BSTAR":0,"MEAN_MOTION_DOT":0,"MEAN_MOTION_DDOT":0}]
